SENTINEL-6              
1 46984U 20086A   23314.36980759 -.00000038  00000+0  99212-4 0  9995
2 46984  66.0409 307.8324 0007918 268.5403  91.4705 12.80931231138679
